[{"OBJECT_NAME":"KUIPER-00123","OBJECT_ID":"2025-228F","EPOCH":"2026-03-09T05:16:41.356704","MEAN_MOTION":14.79954051,"ECCENTRICITY":4.843e-5,"INCLINATION":51.9011,"RA_OF_ASC_NODE":5.169,"ARG_OF_PERICENTER":341.7686,"MEAN_ANOMALY":18.3259,"EPHEMERIS_TYPE":0,"CLASSIFICATION_TYPE":"U","NORAD_CAT_ID":65952,"ELEMENT_SET_NO":999,"REV_AT_EPOCH":2312,"BSTAR":-0.0012580982,"MEAN_MOTION_DOT":-9.803e-5,"MEAN_MOTION_DDOT":0},{"OBJECT_NAME":"NOAA 16 DEB","OBJECT_ID":"2000-055FZ","EPOCH":"2026-03-08T22:07:52.896000","MEAN_MOTION":14.75524151,"ECCENTRICITY":0.00297301,"INCLINATION":98.9229,"RA_OF_ASC_NODE":320.3097,"ARG_OF_PERICENTER":242.5137,"MEAN_ANOMALY":117.3046,"EPHEMERIS_TYPE":0,"CLASSIFICATION_TYPE":"U","NORAD_CAT_ID":41273,"ELEMENT_SET_NO":999,"REV_AT_EPOCH":53554,"BSTAR":0.0040002198,"MEAN_MOTION_DOT":0.00027477,"MEAN_MOTION_DDOT":0}]
